name,address,country,phone,website,google_maps_url,resumen,colores_hex,url_logo,url_screenshot
Grupo Profand,"Av. de García Barbón, 62, Bloque 1, Entreplanta, Santiago de Vigo, 36201 Vigo, Pontevedra, Spain",Spain,986 44 73 84,https://www.profand.com/,https://maps.google.com/?cid=14228614613178827062,"Profand es una empresa multinacional destacada en el sector pesquero mundial, especializada en la elaboración y procesamiento de productos del mar. La compañía muestra un fuerte compromiso con la innovación, destacando en la exploración de nuevas formas de comunicación y el futuro de la alimentación a través de iniciativas como el desarrollo de videos utilizando inteligencia artificial. Esta orientación hacia la innovación subraya su enfoque progresista y su dedicación a comunicar de manera efectiva el futuro de la alimentación, reflejando su posición líder en la industria pesquera global.","['#715938', '#f0efe8', '#a8aba7', '#49647d', '#1c2d4a']",https://business-finder-assets-2024.s3.amazonaws.com/logos/Logo_Grupo_Profand_azul.svg,https://business-finder-assets-2024.s3.amazonaws.com/screenshots/www.profand.com_.png
Frigorificos Pereira,"Puerto Pesquero- Dársena 4, s/n, 36202 Vigo, Pontevedra, Spain",Spain,986 44 62 65,http://www.pereira.es/,https://maps.google.com/?cid=13799283736277606835,"Pereira Productos del Mar es una empresa destacada en la elaboración y comercialización de pescado congelado y marisco congelado de alta mar. Su catálogo de productos proviene de diversos caladeros del Océano Atlántico, asegurando una amplia variedad y la máxima calidad para el consumidor. Con un fuerte compromiso hacia la cadena de suministro ""desde el mar a su mesa"", Pereira se involucra directamente en todas las etapas del proceso, desde la captura hasta el producto final listo para el consumo.

Esta empresa se distingue por contar con una flota de buques congeladores, personal altamente cualificado y experto en calidad, factorías de procesado y transporte propio. Su presencia en los principales caladeros del Atlántico refuerza su capacidad para ofrecer productos del mar frescos y de alta calidad. La estrategia de Pereira Productos del Mar se centra en garantizar la sostenibilidad, la calidad y la confiabilidad, elementos clave que respaldan su promesa de ofrecer los mejores tesoros del mar a sus clientes.","['#3b3438', '#5f5f63', '#f4f5f4', '#78797b', '#221819']",https://business-finder-assets-2024.s3.amazonaws.com/logos/logo-pereira.jpeg,https://business-finder-assets-2024.s3.amazonaws.com/screenshots/www.pereira.es_.png
Benteler,"Poligono Valladares Poligono Valladares, Parcelas 13-14, 36314 Vigo, Pontevedra, Spain",Spain,986 26 88 00,http://www.benteler.com/,https://maps.google.com/?cid=16251745105452430042,"BENTELER es un grupo empresarial internacional que destaca como líder pionero en la integración de la sostenibilidad en sus operaciones y cadena de valor. Desde su fundación en 1876, se ha especializado en el procesamiento de metales, aplicando su pasión por el material, las oportunidades de procesamiento que ofrece y los productos creados con él. BENTELER ha desarrollado una vasta competencia en productos de alta calidad a lo largo de toda la cadena de suministro, consolidándose como un proveedor clave de servicios tecnológicos y componentes automotrices, así como de productos de acero/tubo. La empresa se compromete firmemente con la producción de vehículos más seguros y sostenibles para el futuro de la movilidad.","['#252932', '#f3f4f4', '#474848', '#b1bfd3', '#8593a5']",,https://business-finder-assets-2024.s3.amazonaws.com/screenshots/www.benteler.com_.png
Embalajes Vigo,"Rúa Menéndez Pelayo, 32, 36211 Vigo, Pontevedra, Spain",Spain,986 95 38 32,https://embalajesvigo.es/,https://maps.google.com/?cid=8849723680745481379,"Embalajes Vigo es una empresa especializada en la venta de materiales de embalaje. Con un marcado enfoque hacia la satisfacción de diversas necesidades de embalaje, la empresa ofrece una amplia gama de productos específicos para facilitar mudanzas, organizar almacenes, y realizar todo tipo de envíos. Su catálogo incluye cajas de cartón de diversos tamaños y fortalezas, film plástico, material de burbuja, relleno, fundas para colchones, y otras soluciones de embalaje. Destacan por su capacidad de ofrecer cajas de cartón a medida, adaptándose a proyectos específicos con requerimientos particulares de grandes volúmenes, lo que resalta la flexibilidad y personalización en su servicio al cliente.

Embalajes Vigo se posiciona como una entidad comprometida con la provisión de soluciones de embalaje de alta calidad, ofreciendo desde soluciones estándares hasta opciones personalizadas que responden a necesidades específicas, con un enfoque claro en la adaptabilidad y la atención al detalle para satisfacer a un amplio espectro de clientes, desde individuos en procesos de mudanza hasta empresas que requieren soluciones de embalaje para la logística y el transporte de mercancías.","['#fdfdfd', '#d0a93d', '#030302', '#785f9a', '#ebd78d']",https://business-finder-assets-2024.s3.amazonaws.com/logos/Embalajes-Vigo.png,https://business-finder-assets-2024.s3.amazonaws.com/screenshots/embalajesvigo.es_.png
Lear Corporation Vigo,"Rúa C, s/n, 36201 Vigo, Pontevedra, Spain",Spain,986 82 97 00,https://www.lear.com/,https://maps.google.com/?cid=647845566917479206,"Lear Corporation se posiciona como un líder global en el sector automotor, especializándose en Sistemas de Asientos y Sistemas Electrónicos (E-Systems), ofreciendo tecnologías avanzadas a los fabricantes de automóviles más reconocidos mundialmente. La compañía, con más de 100 años de historia, se destaca como el mayor proveedor de automoción basado en los Estados Unidos, definiendo el futuro de la movilidad a través de innovaciones en sistemas de asientos y sistemas electrónicos.

Lear Corporation se enorgullece de su cultura organizacional, con un equipo talentoso comprometido en impulsar la innovación, alcanzar la excelencia operativa y avanzar en la sostenibilidad. La empresa ha sido reconocida por sus innovaciones galardonadas y está dedicada a mejorar cada experiencia de conducción a través de sus contribuciones al sector automotriz.

Además, Lear Corporation ha sido premiada con el Automotive News PACE Award en 2025 por su innovador Módulo de Control de Zona y ha recibido reconocimientos por sus resultados financieros en el primer trimestre de 2025. Este logro subraya su compromiso con la excelencia y la capacidad para mantenerse a la vanguardia en un sector altamente competitivo y en constante evolución.

En el ámbito de la sostenibilidad y el compromiso social, Lear Corporation se esfuerza cotidianamente por reducir su impacto ambiental, apoyar a comunidades y mejorar sus prácticas sostenibles, con esfuerzos liderados por su presidente y CEO, Ray Scott. La empresa también ofrece oportunidades de carrera motivadoras, fomentando un entorno de trabajo colaborativo que impulsa el éxito global y fomenta la excelencia entre sus empleados.

Lear Corporation se mantiene como un pilar de innovación, sostenibilidad y éxito dentro del sector automotriz, demostrando un compromiso constante con la mejora de la experiencia de conducción y el avance hacia un futuro más sostenible .","['#f9fafa', '#252e3a', '#888681', '#55595a', '#beb9b2']",https://business-finder-assets-2024.s3.amazonaws.com/logos/6019e43dcfad3cda2341797d_lear%20original%20logo.svg,https://business-finder-assets-2024.s3.amazonaws.com/screenshots/www.lear.com_.png
Cercaplast,"Rúa Doutor Toscano, 1, Lavadores, 36205 Vigo, Pontevedra, Spain",Spain,,,https://maps.google.com/?cid=7395814244916297507,,,,
GKN Driveline,"Rúa de Citroën, 5, 36210 Vigo, Pontevedra, Spain",Spain,986 90 88 00,http://www.gknautomotive.com/,https://maps.google.com/?cid=12149271121032620247,"GKN Automotive se presenta como un líder global en el sector tecnológico automotriz, destacándose por su extensa experiencia y capacidad de innovación extendida por todo el mundo. Durante más de 260 años, ha sido un socio confiable para el 90% de las empresas automotrices a nivel mundial, especializándose en el desarrollo y suministro de tecnologías de sistemas de propulsión líderes en el mercado, desde ejes de transmisión hasta sistemas avanzados de gestión de torque, a la vez que proporciona experiencia en la integración de sistemas. Esta historia de innovación ha habilitado desarrollos significativos en la industria, como los vehículos de tracción delantera y sistemas de tracción integral más eficientes, que han pavimentado el camino para el desarrollo de sus sistemas eDrive de alto rendimiento.

Como arquitecto de un futuro electrificado, la innovación de GKN Automotive, su experiencia y alcance global le otorgan la capacidad de promover un mundo más limpio y sostenible. La empresa emplea aproximadamente a 24,000 personas en empresas conjuntas, posee 48 sitios de manufactura y 5 centros tecnológicos globales. En el año 2024, su proyección de ventas alcanza aproximadamente las 3.9 mil millones de libras esterlinas., manteniéndose activa en 21 países que incluyen empresas conjuntas.

GKN Automotive ha sido reconocida por su progreso hacia objetivos de sostenibilidad, evidenciado por una calificación de oro otorgada por sus avances en esta área. Además, se han comprometido con iniciativas ambientales como la firma de un Acuerdo de Compra de Energía Virtual con Recurrent Energy para cubrir el 65% de la carga eléctrica europea y han logrado reducir directamente las emisiones de CO2e en un 10.5% en 2023.

La empresa también está invirtiendo en la próxima generación de ingenieros a través de la apertura de Laboratorios de Innovación STEM en India, diseñados para inspirar a futuros ingenieros. Este compromiso con la innovación, la sostenibilidad y el desarrollo de ta...","['#fefefe', '#989797', '#eaeaea', '#a93731', '#c0bebe']",,https://business-finder-assets-2024.s3.amazonaws.com/screenshots/www.gknautomotive.com_.png
MCSyncro,"Zona Franca de Nave 1, 36208 Vigo, Pontevedra, Spain",Spain,986 21 41 72,,https://maps.google.com/?cid=15078012361176274836,,,,
"Envases Universales Iberica, S.L.U.","Bajada Gándara, 32, 36330 Vigo, Pontevedra, Spain",Spain,986 29 26 00,https://www.envases.mx/es/,https://maps.google.com/?cid=3059923262301882968,"Envases Universales Ibérica S.L.U. se posiciona como líder mundial en soluciones de embalaje globales, especializándose en empaque sustentable, protección climática, e iniciativas humanas y de entorno laboral. Están comprometidos con incrementar la sustentabilidad de sus envases mediante soluciones innovadoras, además de hacer crecer su empresa mientras minimizan su impacto ambiental. Se destacan por asegurar el trato digno y respetuoso hacia todas las personas.

La empresa ha expandido su presencia internacional con la adquisición de Domiberia, la cual es la segunda mayor empresa española de envases metálicos operando seis plantas en su mercado local y una en los Países Bajos, con un equipo de más de 600 personas. Han ingresado al mercado estadounidense de latas de aluminio para bebidas con una nueva planta en Waco, aprovechando su ubicación estratégica.

El Grupo Envases también ha anunciado la adquisición de Huber Packaging Group, ampliando así su cartera de soluciones de envasado. En términos de sostenibilidad, han publicado un Informe Anual para el año 2024 que detalla sus esfuerzos y compromisos hacia prácticas sostenibles.

En resumen, Envases Universales Ibérica S.L.U. es una empresa progresiva enfocada en el desarrollo de soluciones de embalaje innovadoras y sustentables, con un fuerte compromiso hacia la responsabilidad ambiental y social. Su expansión y adquisiciones recientes subrayan su posición dominante en el mercado global de envases.","['#454545', '#f5f5f5', '#32120f', '#b6aead', '#303131']",,https://business-finder-assets-2024.s3.amazonaws.com/screenshots/www.envases.mx_es_.png
Plásticos Técnicos Plastmeca,"Rúa do Faisán, 19, Local 11, Sárdoma, 36205 Vigo, Pontevedra, Spain",Spain,660 17 49 68,https://www.plastmeca.com/,https://maps.google.com/?cid=12370829599000518466,"Plastmeca es una empresa especializada en el mecanizado de plásticos y elastómeros, ubicada en Vigo, Pontevedra. Se distingue por ofrecer un servicio integral que abarca desde el diseño hasta el mecanizado de piezas de plástico, sirviendo a toda la provincia de Pontevedra, así como al resto de Galicia y a Portugal. A través de técnicas avanzadas de fabricación, Plastmeca garantiza resultados de alta calidad, adaptándose a los requerimientos específicos de cada cliente mediante el diseño y programación de piezas a medida en 2D.

Una de las fortalezas clave de Plastmeca es su capacidad de realizar entregas en plazos cortos, lo que la diferencia notablemente de la competencia. La empresa también promueve valores de perfección y eficacia en cada proyecto, respaldada por un equipo profesional y una larga experiencia en el sector. Además, trabaja con 45 fábricas diferentes, lo que le permite ofrecer una amplia variedad de materiales y soluciones en el menor tiempo posible a sus clientes. Plastmeca también cuenta con un almacén propio para disponer de un stock variado y realizar cortes en cualquier medida y espesor de plásticos, manteniéndose a la vanguardia de la tecnología en el campo del mecanizado plástico .

Esta compañía no solo sirve a industrias que requieren aplicaciones específicas de mecanizado de plásticos, sino también a aquellos en busca de soluciones prácticas y económicas para sus necesidades de proyectos plásticos, evidenciando un compromiso con la innovación y la satisfacción del cliente.","['#a3b3ae', '#eff5f9', '#312f2c', '#3461a8', '#ebbb45']",,https://business-finder-assets-2024.s3.amazonaws.com/screenshots/www.plastmeca.com_.png
Belts Vigo,"Bajada RIOS, 30, Teis, 36216 Vigo, Pontevedra, Spain",Spain,986 37 94 28,http://www.beltsvigo.com/,https://maps.google.com/?cid=7004635745390962430,"Belts Vigo es una empresa destacada en el sector de bandas transportadoras, con más de 29 años de experiencia. Se especializa en la fabricación, reparación y montaje de bandas transportadoras utilizadas en una amplia gama de aplicaciones, desde supermercados hasta aeropuertos y fábricas de coches. La compañía se enorgullece de su crecimiento constante a lo largo de los años, atribuido a la calidad de sus productos, su compromiso con la excelencia, y la positiva recomendación boca a boca de sus clientes satisfechos.

Las principales ofertas de Belts Vigo incluyen bandas transportadoras modulares plásticas y bandas de PVC, además de una variedad de componentes relevantes como rodillos, planchas, bandas de caucho, separadores, y cadenas. Esta diversificada gama de productos ha encontrado una aplicación extensa en varios sectores industriales, incluidos la alimentación, el granito, la madera, así como el sector auxiliar del automóvil. Belts Vigo también cumple un papel crucial como proveedor de talleres fabricantes de cintas transportadoras y armadores.

En el núcleo de su operación, Belts Vigo mantiene un compromiso inflexible con la satisfacción del cliente, evidente no solo en el producto que entregan sino también en los servicios de reparación y montaje rápido y competente que ofrecen. Invitan a los interesados a solicitar presupuestos y explorar su oferta, demostrando su apertura y predisposición para atender las necesidades específicas de sus clientes.","['#6b6767', '#fcfbfb', '#9b9492', '#1b1b18', '#c8473b']",https://business-finder-assets-2024.s3.amazonaws.com/logos/BELTS-LOGO.png,https://business-finder-assets-2024.s3.amazonaws.com/screenshots/www.beltsvigo.com_.png
IF VIGO,"Rúa de García Barbón, 64, Santiago de Vigo, 36201 Vigo, Pontevedra, Spain",Spain,986 90 31 49,http://www.ifvigo.com/,https://maps.google.com/?cid=2362880151812266151,"IF VIGO, S.L., conocida comercialmente como IF, es una empresa fundada en 2012, que se dedica a la captura, procesamiento y comercialización de productos del mar. Surgió como una iniciativa para comercializar el pescado capturado por uno de los principales armadores en NAFO, el grupo portugués LARGISPOT. Este grupo tiene una larga tradición pesquera y es conocido en los sectores de pesca, procesamiento de mariscos y comercialización, contando con los canales logísticos necesarios para distribuir sus productos en cualquier punto del mercado internacional.

La integración vertical de la empresa, que abarca desde la captura hasta la comercialización, le permite ofrecer productos de mayor calidad, adaptando los tipos y formatos de venta a las necesidades específicas de los clientes.","['#d5dbe3', '#2e5a74', '#f5f6f8', '#768899', '#adbcca']",https://business-finder-assets-2024.s3.amazonaws.com/logos/logo_peq.png,https://business-finder-assets-2024.s3.amazonaws.com/screenshots/www.ifvigo.com_.png
"Consulta y Crece, Networking en Vigo","Rúa Real, 16, 36202 Vigo, Pontevedra, Spain",Spain,679 15 74 57,http://www.consultaycrece.com/,https://maps.google.com/?cid=126729728944305008,"El contenido del archivo proporcionado no incluye información directa sobre una empresa específica, sino que parece estar relacionado con un problema de acceso a un sitio web, específicamente al sitio web ""consultaycrece.com"". La mayor parte del contenido se refiere a un mensaje de error generado por Wordfence, un plugin de seguridad para sitios WordPress, indicando que el acceso al sitio ha sido limitado temporalmente por razones de seguridad. Se menciona que Wordfence está instalado en más de 5 millones de sitios de WordPress y ofrece herramientas para gestionar el acceso al sitio  .

Dado que no se proporciona información específica sobre la empresa o su actividad, no es posible generar un resumen profesional y conciso de la misma basándome en los datos proporcionados. Si tiene más información o archivos relacionados directamente con la empresa que deseaba analizar, por favor proporcione detalles adicionales o cargue los documentos pertinentes para asistirle adecuadamente.","['#e5e5e4', '#030303', '#ac9b8c', '#fefefe', '#485f7b']",,https://business-finder-assets-2024.s3.amazonaws.com/screenshots/www.consultaycrece.com_.png
Gi Group ETT Vigo (Empresa de trabajo temporal),"C. de Luis Taboada, 32, 3º derecha, 36201 Vigo, Pontevedra, Spain",Spain,886 90 77 18,http://www.gigroup.es/,https://maps.google.com/?cid=8614844959395799482,"Gi Group ETT es una empresa que se especializa en proporcionar soluciones de trabajo temporal, selección y formación, dirigidas tanto a individuos en busca de trabajo como a empresas en necesidad de personal. Su enfoque abarca un amplio rango de áreas profesionales, incluyendo administración, telemarketing, construcción, y muchos otros sectores, tal como se evidencia por sus variadas ofertas de empleo en localidades como Barcelona, Valencia, y Madrid entre otras. Además de su labor principal de reclutamiento y colocación laboral, Gi Group ETT destaca por su compromiso con el desarrollo del talento a través de iniciativas como ""Learning by doing: Un modelo pedagógico centrado en resultados empresariales"" y el fomento de la creación de CVs animados y profesionales utilizando herramientas modernas como Canva. Esta organización, con presencia en varias ciudades españolas, demuestra una clara orientación hacia la mejora continua de los procesos de selección y formación, así como el apoyo al talento joven mediante su programa de becas corporativo ""Young Talent Campus"".

Con un enfoque integral en la gestión del talento y el empleo temporal, Gi Group ETT se posiciona como un actor clave en el mercado laboral ofreciendo una plataforma eficiente para la búsqueda de empleo y el reclutamiento, haciendo uso de herramientas digitales y programas de formación avanzada para conectar a candidatos con oportunidades laborales relevantes.","['#a37f66', '#f9f9f9', '#473933', '#52abbf', '#c5c3c2']",https://business-finder-assets-2024.s3.amazonaws.com/logos/gi-group-child-logo@2x.png,https://business-finder-assets-2024.s3.amazonaws.com/screenshots/www.gigroup.es_.png
RECLAMOS VIGO SL,"Camiño das Maceiras, 26, 36317 Vigo, Pontevedra, Spain",Spain,986 25 07 59,https://www.reclamosvigo.com/,https://maps.google.com/?cid=10312995556380479994,"Reclamos Vigo es una empresa especializada en regalos promocionales personalizados y merchandising para empresas. Se enfocan en potenciar la marca de sus clientes mediante soluciones únicas que se adaptan a sus necesidades específicas. Ofrecen una amplia gama de productos personalizables, como ropa laboral, camisetas baratas, bolígrafos económicos, llaveros y bolsas, todos diseñados para mejorar la imagen corporativa y destacar en el entorno empresarial.

Dentro de su oferta destacada, Reclamos Vigo dispone de:
- **Uniformes y Ropa Laboral Personalizada**: Conjuntos que combinan estilo, comodidad y durabilidad, realzando la profesionalidad del equipo con acabados de calidad en serigrafía, bordado y personalización DTF.
- **Productos Promocionales**: Desde camisetas económicas hasta bidones y tazas personalizadas, pasando por una variedad de bolígrafos ajustados a diversos presupuestos, todos pensados para eventos corporativos o campañas promocionales.

La empresa asegura rapidez y calidad en su servicio gracias a su taller de serigrafía propio, donde personalizan regalos con un toque de diseño gráfico profesional. Su compromiso incluye no solo destacar la marca de sus clientes pero también ofrecer productos de calidad que respondan a las exigencias de personalización y tiempo de entrega.

En conclusión, Reclamos Vigo se posiciona como un proveedor clave de regalos promocionales y merchandise, ofreciendo una solución integral para las empresas que buscan destacar su identidad de marca de forma original y efectiva.","['#363e38', '#badbea', '#fefefe', '#000000', '#9b9371']",,https://business-finder-assets-2024.s3.amazonaws.com/screenshots/www.reclamosvigo.com_.png
"Iberisac, bolsas para comunicar","Rúa Velázquez Moreno, 9, PLANTA BAJA OFICINA 9, 36201 Vigo, Pontevedra, Spain",Spain,986 17 34 40,http://iberisac.com/,https://maps.google.com/?cid=14396103654063763250,"Iberisac es una empresa especializada en el diseño y producción de bolsas personalizadas y packaging para comercio y empresas. Su enfoque se centra en ofrecer una amplia gama de productos adaptados a las necesidades específicas de sus clientes, incluyendo opciones de papel, tela, plástico y accesorios. Con un compromiso hacia la creación de experiencias memorables para los consumidores finales, Iberisac destaca por el empleo de técnicas innovadoras y materiales sostenibles en sus diseños, como el papel antigrasa y antihumedad, especialmente pensados para la industria alimentaria.

La compañía promueve una filosofía de sostenibilidad, destacando la importancia de las prácticas respetuosas con el medio ambiente en la producción de sus materiales de embalaje. Con productos como las bolsas de plástico reciclado, Iberisac apoya la economía circular mediante la reutilización de materiales y la reducción de residuos.

Además de sus productos, Iberisac brinda una experiencia integral a sus clientes que va desde el asesoramiento personalizado hasta un soporte postventa eficaz, asegurando la satisfacción completa en cada etapa del proceso de creación y distribución del packaging. Su enfoque no solo se basa en la calidad y la innovación, sino también en construir relaciones duraderas y provechosas con sus clientes, adaptándose continuamente a las tendencias del mercado y a las exigencias del consumidor moderno.","['#fdfdfd', '#5a5958', '#3f3f3e', '#a3aeab', '#6f6f6e']",https://business-finder-assets-2024.s3.amazonaws.com/logos/iberisac-logo.webp,https://business-finder-assets-2024.s3.amazonaws.com/screenshots/iberisac.com_.png
"PlasExpandido, S.L.","Puerto Pesquero, Almacen Capas, 7, Darsena 3, 36200 Vigo, Pontevedra, Spain",Spain,986 43 03 54,https://bewi.com/?lang=pt-pt,https://maps.google.com/?cid=645740931033508006,"BEWI es un proveedor líder internacional de embalajes, componentes y soluciones de aislamiento, reconocido por su compromiso integral con la sostenibilidad en toda su cadena de valor. Desde su fundación en 1980 en la isla Frøya, en Noruega, BEWI ha enfocado su estrategia en crear valor para clientes, la sociedad y sus propietarios, posicionándose como un actor clave en el mercado mediante la oferta de soluciones innovadoras y sustentables. Su dedicación a la sostenibilidad se evidencia en su proceso de producción, desde la creación de materias primas hasta la reciclación de productos usados, enfatizando la importancia de una economía circular en la industria de embalajes. Además, BEWI destaca por su gama GreenLine, que incluye productos con contenido reciclado y reducidas emisiones de CO2, elaborados a partir de EPS usado recolectado y reciclado por la empresa. Este enfoque no solo subraya su liderazgo en soluciones ecológicas sino también su influencia positiva en el cumplimiento de las exigencias del Green Deal Europeo.","['#000000', '#f0f0f0', '#8c756d', '#3c3e40', '#b6b6b7']",,https://business-finder-assets-2024.s3.amazonaws.com/screenshots/bewi.com_?lang=pt-pt.png
CajasPack,"D3, Naves 1-3, 36202 Vigo, Pontevedra, Spain",Spain,986 43 70 82,https://cajaspack.com/,https://maps.google.com/?cid=17026976937185993378,"**CajasPack: Resumen Profesional y Concluso**

CajasPack es una empresa destacada en la fabricación y distribución de cajas personalizadas, con más de cuatro décadas de experiencia sirviendo a diversas industrias. Especializada en ofrecer soluciones de embalaje a medida, la compañía se enfoca en la producción de cajas de cartón, madera, y poliespán, adaptándose a las necesidades específicas de cada negocio. Además, resalta por su oferta de cajas isotérmicas de poliestireno, ideales para el sector alimentario y el transporte refrigerado. Con una sólida reputación como proveedor de embalajes, CajasPack se posiciona como una opción confiable y versátil para empresas en busca de soluciones de embalaje de alta calidad y personalizadas.","['#9d958c', '#3b3a3b', '#fcfcfc', '#7c746a', '#111113']",https://business-finder-assets-2024.s3.amazonaws.com/logos/logo-final-cajaspack-2.png,https://business-finder-assets-2024.s3.amazonaws.com/screenshots/cajaspack.com_.png
Enriel Suministros Industriales Vigo,"Av. Ricardo Mella, 119, 36330 Vigo, Pontevedra, Spain",Spain,986 21 35 35,http://www.enriel.com/,https://maps.google.com/?cid=9078189573331543390,"Enriel Suministros Industriales, fundada en 1976, se destaca como una empresa familiar en crecimiento que se ha establecido como un proveedor integral y referencia en la distribución de productos y soluciones avanzadas para diversos sectores, incluyendo la industria, primeros equipos, mantenimiento, y el sector naval. Esta empresa se enorgullece de su amplio stock que incluye más de 1 millón de referencias, lo que le permite trabajar con las principales marcas del mercado y garantizar un suministro eficiente gracias a sus delegaciones en España y Portugal y la distribución global desde sus almacenes. Además, Enriel ofrece formación personalizada de sus productos y marcas, brindando un valor agregado a sus clientes a través de un asesoramiento técnico personalizado y un servicio de atención al cliente disponible las 24 horas. La integración de soluciones personalizadas y un sistema de gestión de almacenes automáticos son algunos de los aspectos que resaltan su orientación a la innovación y la satisfacción del cliente.","['#f0f1f2', '#aaa9aa', '#614449', '#d6d6d7', '#d5d16a']",https://business-finder-assets-2024.s3.amazonaws.com/logos/ue.svg,https://business-finder-assets-2024.s3.amazonaws.com/screenshots/www.enriel.com_.png
Grupo Firma,"Ctra. de Camposancos, 102, Local 4M, 36213 Vigo, Pontevedra, Spain",Spain,698 13 16 50,https://www.grupofirma.es/,https://maps.google.com/?cid=74609701272151800,"Grupo Firma es una empresa joven formada por tres profesionales con amplia experiencia en el sector de las artes gráficas. Su misión es brindar valor a sus clientes mediante detalles precisos, utilizando la tecnología más avanzada y un fuerte compromiso para garantizar el impacto visual deseado. Se especializan en realizar ideas y ofrecen una gama de servicios personalizados centrados en la impresión digital y la rotulación.

Ofrecen soluciones personalizadas para una variedad de necesidades de visualización y diseño, incluidas letras corpóreas y señalética, tintado de lunas, y láminas de protección solar para vehículos en Vigo. Cada servicio está diseñado para mejorar tanto la visibilidad como la protección de negocios y vehículos.

Grupo Firma se esfuerza por potenciar la imagen de los negocios a través de soluciones visuales innovadoras que prometen calidad, creatividad, y durabilidad, asegurando así el máximo impacto visual. Además, a través de su blog, ofrecen tendencias, consejos y novedades sobre rotulación e impresión digital para ayudar a las empresas a mejorar su imagen con creatividad e innovación.

Para cualquier consulta o necesidad de asesoramiento y presupuestos personalizados, Grupo Firma invita a sus clientes a ponerse en contacto, facilitando así el inicio de proyectos creativos y la realización de ideas.","['#fdfdfd', '#1c1b1b', '#738275', '#cf3c39', '#060405']",https://business-finder-assets-2024.s3.amazonaws.com/logos/Logotipo-Grupo-Firma-1.png,https://business-finder-assets-2024.s3.amazonaws.com/screenshots/www.grupofirma.es_.png
Grupo de Empresas Álvarez (Ruinas),"Av. de Ramón Nieto, 390, Lavadores, 36214 Vigo, Pontevedra, Spain",Spain,,,https://maps.google.com/?cid=17371212664271689651,,,,
Núñez Vigo,"Av. da Beiramar, 69, 36202 Vigo, Pontevedra, Spain",Spain,986 21 15 00,http://www.nunezvigo.com/,https://maps.google.com/?cid=3825655469726197954,"Nuñez Vigo es una empresa especializada en el diseño, fabricación e instalación de maquinaria de pesca, así como de circuitos hidráulicos y neumáticos. La compañía concentra gran parte de su actividad en el sector naval e industrial, proveyendo soluciones integrales y personalizadas que abarcan desde la ingeniería inicial hasta la entrega final del proyecto. La empresa se destaca por su capacidad para ofrecer proyectos ""llave en mano"" adaptados a las necesidades específicas de sus clientes, lo que incluye una amplia gama de productos y servicios relacionados con la hidráulica y la neumática. 

Además de su enfoque en maquinaria de pesca, Nuñez Vigo también trabaja en proyectos de diversas escalas y complejidades para otros tipos de embarcaciones y sectores industriales, aprovechando su extenso conocimiento y experiencia en la materia. Su compromiso con la calidad y la innovación técnica se refleja en el diseño y ejecución de soluciones eficientes y duraderas, consolidando su reputación como líder en el sector.

Nuñez Vigo forma parte del grupo EMENASA, una coalición de empresas especializadas en servicios y productos para diferentes industrias, incluida la naval. Esta pertenencia a un grupo más grande le permite a Nuñez Vigo acceder a recursos, conocimientos y tecnologías complementarias que enriquecen su oferta de servicios, aumentando así su capacidad para ejecutar proyectos de gran envergadura y alto nivel técnico.

En resumen, Nuñez Vigo se posiciona como una empresa clave en la industria de hidráulica y neumática para aplicaciones navales e industriales, destacándose por su capacidad para ofrecer soluciones completas y personalizadas que satisfacen las necesidades de sus clientes y contribuyen al progreso y eficiencia de sus operaciones.","['#2b3830', '#fdfcfd', '#7e8288', '#b13c35', '#a5a6ab']",https://business-finder-assets-2024.s3.amazonaws.com/logos/hyva-logo.jpg,https://business-finder-assets-2024.s3.amazonaws.com/screenshots/www.nunezvigo.com_.png
Sunoba Suministros Industriales,"Rúa Marqués de Valterra, 1, Bajo, 36202 Vigo, Pontevedra, Spain",Spain,986 43 29 66,http://www.sunoba.net/,https://maps.google.com/?cid=6935235808472368252,"Sunoba Suministros Industriales es una empresa consolidada con más de 30 años de experiencia en el sector, destacándose desde 1986 por su dedicación al suministro de equipos, mantenimiento, industria en general y en particular al sector naval. La empresa ha evolucionado haciendo hincapié en el aprendizaje y la capacitación de su equipo humano, lo cual le permite ofrecer soluciones adecuadas a las necesidades específicas de sus clientes.

Entre sus servicios clave, Sunoba garantiza entrega en 24 horas gracias a su amplio almacén y eficiente logística de distribución. Además, proporciona asesoramiento técnico respaldado por la experiencia de su propio personal técnico y el apoyo de las marcas que distribuye. En términos de productos, la empresa se enorgullece de contar con 80,000 referencias en stock permanente, cubriendo áreas como la estanqueidad, rodamientos, filtración, transmisión de potencia, herramientas, cierres mecánicos y productos químicos.

Cabe destacar su compromiso con la calidad, evidenciado por el sistema de gestión de calidad según la norma UNE-EN ISO 9001, lo que refuerza su fiabilidad y profesionalismo en el sector de suministros industriales.

En resumen, Sunoba Suministros Industriales se presenta como una empresa líder en su ámbito, impulsada por una larga trayectoria, un enfoque en soluciones técnicas personalizadas y un compromiso profundo con la calidad y la satisfacción del cliente.","['#0d0d0d', '#fdfdfd', '#6e95d4', '#333333', '#5e5e5e']",https://business-finder-assets-2024.s3.amazonaws.com/logos/CRC-Logo-300x300.jpg,https://business-finder-assets-2024.s3.amazonaws.com/screenshots/www.sunoba.net_.png
Tupersa / Delegación Vigo,"Travesía, Rúa de Manuel Costas Bastos, 67, Nave 5, 36317 Vigo, Pontevedra, Spain",Spain,687 49 32 56,http://www.tupersa.com/,https://maps.google.com/?cid=17267084181521250007,,,,
MHG GALICIA,"R. México, 64, Santiago de Vigo, 36204 Vigo, Pontevedra, Spain",Spain,986 07 86 80,,https://maps.google.com/?cid=11115458735146309668,,,,
SMART KNITWEAR MANAGEMENT S. L.,"Cánovas del Castillo Nº 10 2ª Planta Oficina 15, 36202 Vigo, Pontevedra, Spain",Spain,986 11 37 51,http://smart-km.com/,https://maps.google.com/?cid=8109778380794974295,"Smart Knitwear Management S.L. (SKM) es una prestigiosa empresa española con más de 20 años de experiencia en el sector textil. Especializada en el diseño, fabricación e importación de prendas de punto, SKM se destaca por su compromiso con la calidad y la exclusividad, ofreciendo soluciones a medida para cada cliente. Fundada en 2003 por un equipo de profesionales con experiencia previa en el grupo Inditex, SKM ha logrado consolidarse como una referencia en el mercado gracias a su enfoque integral en el proceso de producción, desde el análisis y desarrollo de tendencias hasta el asesoramiento en la creación de colecciones.

La compañía se enorgullece de su metodología de trabajo que implica un trato personalizado para cada cliente, asegurando que cada colección sea exclusiva y se ajuste perfectamente a sus necesidades y expectativas. Este enfoque se extiende a través de todas las fases del proceso de producción, incluyendo el diseño, la prototipos, la confirmación de muestras, el control de calidad y la logística, garantizando así la entrega de productos de alta calidad.

SKM tiene su sede en Vigo, España, y su impacto en la industria textil se extiende más allá de las fronteras españolas, atendiendo a una clientela global que busca soluciones de moda innovadoras y personalizadas. Con un equipo altamente calificado y una sólida reputación en el mercado, Smart Knitwear Management S.L. sigue siendo un líder en el sector de prendas de punto, comprometido con la excelencia en cada paso de su proceso productivo.","['#bdb7aa', '#1f1f23', '#fdfdfd', '#917e72', '#575355']",,https://business-finder-assets-2024.s3.amazonaws.com/screenshots/smart-km.com_.png
IBERCONSA,"A Riouxa, s/n, Teis, 36216 Vigo, Pontevedra, Spain",Spain,986 21 33 00,http://www.iberconsa.es/,https://maps.google.com/?cid=7581049844561177103,"Iberconsa se posiciona como líder mundial en la captura y producción de langostino austral y merluza congelada. Se distingue por ofrecer productos de máxima calidad, asegurando la frescura del pescado a través de procesos cuidadosamente controlados en sus buques factoría. Su enfoque se centra en la excelencia en cada etapa de producción para garantizar la satisfacción del cliente y el respeto por el medio ambiente.","['#5e6367', '#f8f6f1', '#1f3042', '#cbc8bb', '#938f89']",https://business-finder-assets-2024.s3.amazonaws.com/logos/iberconsa-2024-09-03.svg#852,https://business-finder-assets-2024.s3.amazonaws.com/screenshots/www.iberconsa.es_.png
Erictega S.L.,"Av. de Madrid, 30, entresuelo, oficina 2 BIS, Sárdoma, 36204 Vigo, Pontevedra, Spain",Spain,986 24 77 72,http://www.erictega.es/,https://maps.google.com/?cid=3115131967761183821,"Erictega S.L. es una empresa que se enfoca en ofrecer soluciones de comunicación para empresas. Su enfoque principal parece estar en mejorar la experiencia de navegación de sus clientes a través de la implementación de políticas de cookies adecuadas, lo que sugiere un énfasis en el desarrollo web y la optimización digital. La documentación disponible no proporciona detalles extensivos sobre los servicios específicos o la historia de la empresa, pero destaca la importancia que le dan a la experiencia del usuario en línea.","['#fdfdfd', '#3f4c61', '#b5bfc5', '#151c23', '#637e9a']",https://business-finder-assets-2024.s3.amazonaws.com/logos/char-logo.png,https://business-finder-assets-2024.s3.amazonaws.com/screenshots/www.erictega.es_.png
VIBRAL,"Estrada Fragosiño, 2, Sárdoma, 36214 Vigo, Pontevedra, Spain",Spain,986 42 47 33,https://vibral.net/,https://maps.google.com/?cid=16025047598918082678,"VIBRAL es una empresa con más de 60 años de experiencia en la reparación de motores, establecida inicialmente como una empresa auxiliar de la Fábrica de Motores del Astillero Barreras en 1962. Con el paso de los años, ha diversificado su actividad a otros productos y sectores, logrando una base de más de 500 clientes activos en diversos países europeos. Su especialización abarca rectificados, ajustes de motores, y mecanizados de precisión, además de la fabricación de diversos componentes en una amplia gama de materiales metálicos y no metálicos.

Un distintivo importante de VIBRAL es su compromiso con la calidad, el respeto a los recursos humanos, el medio ambiente, y la responsabilidad social empresarial. Estos valores son pilares fundamentales en su cultura de empresa y se reflejan en su enfoque hacia la satisfacción del cliente.

La empresa ha participado como patrocinadora en eventos importantes como la ""7th Manufacturing Engineering Society International Conference"" y es socia fundadora de la Federation Internationale de Rectifieurs et Reconstructeurs de Moteurs (FIRM), entre otras asociaciones relevantes en el sector. Además, VIBRAL ofrece una amplia gama de servicios que incluyen mecanizados, fabricación de piezas a medida, y ensayos no destructivos, reflejando su capacidad para atender requisitos complejos y específicos en los sectores de la mecánica y el rectificado de motores.","['#fbfdfe', '#868999', '#aaaebc', '#404463', '#d1d5e0']",https://business-finder-assets-2024.s3.amazonaws.com/logos/Vibral-logofecha-grande-600px.png,https://business-finder-assets-2024.s3.amazonaws.com/screenshots/vibral.net_.png
TESOL GROUP,"Av. da Beiramar, 171, 36208 Vigo, Pontevedra, Spain",Spain,986 29 31 14,https://tesolgroup.com/,https://maps.google.com/?cid=14246380967045442285,"Tesol Group es una empresa especializada en el sector de la soldadura, centrada en la robótica y los automatismos, con más de 30 años de experiencia en fabricación de equipos, consultoría y formación. La compañía opera en diversos países como distribuidor de importantes marcas mundiales de material de soldadura y tiene un enfoque innovador en el desarrollo de equipos de alta tecnología para satisfacer las necesidades de sectores clave como automoción, naval, eólico, hidrocarburos, hidroeléctrico y aeronáutica. Tesol Group se esfuerza por mejorar el futuro tecnológico de la industria de la soldadura a través de soluciones prácticas y útiles para las empresas, incluyendo consultoría de soldadura, automatismo y proyectos llave en mano, así como un completo catálogo de productos.

Además, la empresa pone énfasis en la investigación y la innovación como ejes para plantear preguntas futuras y avanzar en el campo de la soldadura, adoptando tecnologías emergentes, como la integración de cobots (robots colaborativos), para brindar ventajas y aplicaciones prácticas en este ámbito. Esto se refleja en su compromiso con el empoderamiento femenino dentro de la industria y el desarrollo de guías prácticas para el mantenimiento de equipos de soldadura. 

Tesol Group se posiciona como una empresa líder en soldadura de última generación, destacando por su enfoque en la tecnología, innovación, y educación dentro de su sector.","['#48423e', '#afb0b3', '#f9f9fa', '#221e1c', '#767169']",https://business-finder-assets-2024.s3.amazonaws.com/logos/icon-catalogo.svg,https://business-finder-assets-2024.s3.amazonaws.com/screenshots/tesolgroup.com_.png
Uzal,"Av. de Castrelos, 15, Freijeiro, 36210 Vigo, Pontevedra, Spain",Spain,986 29 77 24,,https://maps.google.com/?cid=10318175497744838044,,,,
"Frigoríficos de Vigo, S.A.","Plaza Porto Pesqueiro, 4, 36202 Vigo, Pontevedra, Spain",Spain,986 44 71 00,https://frivigo.com/,https://maps.google.com/?cid=9047140228777092080,"Frigoríficos de Vigo es una destacada empresa ubicada en el puerto de Vigo, considerado uno de los principales puertos a nivel mundial. Desde su fundación en 1940, se ha especializado en el almacenamiento frigorífico y procesado de productos del mar, tanto frescos como congelados, ofreciendo a sus clientes servicios de alta calidad y eficiencia. La empresa cuenta con amplias instalaciones que incluyen salas de elaboración, grandes capacidades de almacenamiento en estanterías móviles, tres túneles de congelación con capacidad de hasta 20 toneladas por túnel y una fábrica de hielo en escamas con una producción de 200 toneladas al día. Adicionalmente, comercializan productos pesqueros, centrándose principalmente en cefalópodos.

Frigoríficos de Vigo se mantiene a la vanguardia del sector gracias a su continua presencia desde hace más de 70 años, siempre situándose en el puerto pesquero de Vigo, punto estratégico para el movimiento mercantil. La empresa está comprometida con la calidad, como lo demuestran sus diversas autorizaciones y certificaciones, incluidas las específicas para la exportación a mercados como Estados Unidos, Brasil y México. Este compromiso con la excelencia y la estratégica ubicación hacen de Frigoríficos de Vigo un socio esencial en la industria pesquera y alimentaria.","['#a78b61', '#fcfcfc', '#58140f', '#405f90', '#b0afae']",https://business-finder-assets-2024.s3.amazonaws.com/logos/logo.png,https://business-finder-assets-2024.s3.amazonaws.com/screenshots/frivigo.com_.png
ZF,"Cño. do Caramuxo, 35, 36213 Vigo, Pontevedra, Spain",Spain,986 29 31 29,http://www.zf.com/es,https://maps.google.com/?cid=16652256148370380135,"La empresa ZF Aftermarket Ibérica, S.L.U., con su amplia gama de operaciones en España, representa una parte esencial de la red global de ZF, un líder mundial en el mercado del aftermarket automotriz. Sus oficinas y plantas están estratégicamente ubicadas en varias regiones clave de España, incluyendo Alfaro en La Rioja, Barberá del Vallés y Barcelona en Cataluña, Boecillo en Valladolid, Corella y Egues en Navarra, Ermua y Lezama en Bizkaia, Mutilva Baja en Navarra, O Porriño en Pontevedra, Olvega en Soria, Pamplona en Navarra, San Fernando de Henares en Madrid, y Vigo en Pontevedra.

ZF ofrece una amplia gama de servicios y productos para vehículos, destacando por su compromiso con la calidad, la innovación y el desarrollo de tecnología avanzada en el sector automovilístico. La compañía se enfoca en proporcionar soluciones integrales que mejoren el rendimiento y la seguridad de los vehículos, ofreciendo al mercado una combinación de experiencia técnica avanzada con un profundo conocimiento del aftermarket automotriz.

Las operaciones de ZF en España reflejan su estrategia global de estar cerca de sus clientes y mercados, proporcionando soporte localizado y especializado a través de sus diversas ubicaciones. Esto incluye tanto servicios de posventa como soporte técnico y desarrollo de nuevos productos adaptados a las necesidades específicas del mercado español.

Con un enfoque en la innovación y sostenibilidad, ZF Aftermarket Ibérica S.L.U. se adelanta a las tendencias del mercado, ofreciendo soluciones que abordan desafíos futuros en movilidad, eficiencia energética y digitalización del sector automotriz. Esta visión hacia el futuro, combinada con una fuerte presencia local y un profundo conocimiento del mercado, posiciona a ZF como un socio clave en la industria automotriz de España y contribuye significativamente al crecimiento y desarrollo del sector en el país   .","['#fefefe', '#666666', '#d0d4db', '#2b5fb5', '#a0a5ad']",https://business-finder-assets-2024.s3.amazonaws.com/logos/ZF_logo_STD_Blue_3C.svg,https://business-finder-assets-2024.s3.amazonaws.com/screenshots/www.zf.com_es.png
Europacifico Alimentos Del Mar,"nº 2, Edificio Berbés, Puerto Pesquero Dársena, 4, 36202 Vigo, Pontevedra, Spain",Spain,986 44 70 57,http://www.europacifico.net/,https://maps.google.com/?cid=8632189868084506668,"Europacífico es una empresa especializada en la exportación de merluza austral y en la promoción de la pesca sostenible. Brinda soluciones personalizadas con productos del mar de alta calidad desde 1996. La compañía se distingue por su estabilidad en precios, gran variedad de productos, calidad garantizada, y compromiso con el medio ambiente. Ofrece productos ajustados a las necesidades del cliente, incluyendo formatos y envases a medida, y destacando por la innovación y sostenibilidad en sus procesos. Europacífico opera como un importante centro de I+D en SeaFood, enfocada en mantener la transparencia y simplicidad en sus operaciones, siendo la merluza austral su producto estrella.","['#bad5f1', '#6d8ba7', '#fafcfd', '#1e303c', '#3d5a74']",,https://business-finder-assets-2024.s3.amazonaws.com/screenshots/www.europacifico.net_.png
"Embarbox | Cajas de cartón, de madera y de poliespán","Dársena 3, Naves 1-3 Apartado 1095, 36202 Vigo, Pontevedra, Spain",Spain,986 43 70 82,https://www.embarbox.com/,https://maps.google.com/?cid=8450225172057131566,"Embarbox se presenta como una referencia líder en la provisión de soluciones integrales de embalaje y suministros de almacén, enfatizando en productos de alta calidad para una diversa gama de necesidades de envío y almacenamiento. Con más de 40 años de experiencia, la empresa destaca su compromiso con la calidad, la innovación en su gama de productos y la puntualidad en las entregas, asegurando un servicio y atención al cliente excepcionales.

**Oferta de Productos y Servicios:**

- **Cajas de Cartón, Madera y Poliestireno:** Embarbox ofrece una amplia gama de cajas en diferentes materiales, adaptándose a las necesidades específicas de cada cliente, desde usos industriales hasta propósitos decorativos.
- **Contenedores y Palets:** Proporcionan soluciones resistentes y prácticas para el transporte y almacenamiento de mercancías, incluyendo contenedores de madera y cartón y palets de diversos materiales, tratados para cumplir con regulaciones internacionales.
- **Productos de Relleno y Protección:** La empresa suministra una variedad de accesorios y materiales de embalaje, como relleno de poliestireno expandido (perlas) y geles refrigerantes, para proteger los envíos durante el transporte.
- **Servicios de Personalización:** Embarbox brinda servicios de impresión para cajas de cartón y madera, permitiendo la personalización de embalajes que refuercen la identidad de marca de los clientes.

**Diferenciadores Clave:**

- **Calidad Garantizada:** Su enfoque en productos de máxima calidad posiciona a Embarbox como un referente en el mercado de soluciones de embalaje.
- **Experiencia Amplia:** Más de cuatro décadas de experiencia subrayan la capacidad de la empresa para proveer soluciones efectivas y eficientes en embalaje.
- **Innovación y Variedad:** La constante innovación y ampliación de su línea de productos garantizan soluciones de embalaje adecuadas para distintos sectores y necesidades.
- **Compromiso con el Cliente:** Embarbox destaca por su atención personaliz...","['#ddba78', '#594736', '#fcfbfa', '#9a8165', '#261c15']",https://business-finder-assets-2024.s3.amazonaws.com/logos/logo-small.png,https://business-finder-assets-2024.s3.amazonaws.com/screenshots/www.embarbox.com_.png
Bolsas Feijóo,"Est. do Freixo, 11, Sárdoma, 36214 Vigo, Pontevedra, Spain",Spain,617 47 23 77,https://www.bolsasfeijoo.com/,https://maps.google.com/?cid=11536908863313606500,"Bolsas Feijoo es una empresa especializada en la fabricación de bolsas y productos de embalaje comprometida con la sostenibilidad y el respeto al medioambiente. Cuentan con un equipo humano especializado encargado de asesorar sobre las mejores soluciones en materiales reciclables, diseño y resistencia adaptadas a diversos sectores como alimentación, moda, comercio, marcas, y merchandising. Gracias a su utilización de la última tecnología y su adaptación a las nuevas normativas europeas en sostenibilidad, ofrecen productos de calidad asegurando una atención al cliente excepcional. Bolsas Feijoo destaca por su enfoque en la calidad, la atención al cliente, y su compromiso con el medio ambiente.","['#ef9658', '#fbfafa', '#978e8e', '#b4352a', '#d1cbcc']",,https://business-finder-assets-2024.s3.amazonaws.com/screenshots/www.bolsasfeijoo.com_.png
Pescaira,"Calle de, Rúa Marqués de Valterra, 33, Bajo, 36202 Vigo, Pontevedra, Spain",Spain,986 29 89 00,http://www.pescaira.com/,https://maps.google.com/?cid=15607594447346931901,"**PESCAIRA**: Un Comprometido Proveedor de Soluciones Industriales

**Historia y Compromiso**
Desde hace más de 30 años, PESCAIRA se ha establecido como un proveedor industrial de alta calidad, manteniendo un fuerte compromiso con la excelencia y la satisfacción del cliente. La empresa ha demostrado una dedicación inquebrantable a mantener altos estándares de calidad en todos sus productos y servicios.

**Innovación y Desarrollo**
Con un enfoque claro en la ingeniería, diseño y desarrollo, PESCAIRA ha sentado las bases para innovaciones significativas dentro del sector industrial. Diseñan y fabrican útiles de elevación de cargas customizados que satisfacen las necesidades específicas de múltiples sectores, garantizando una larga vida útil y máxima fiabilidad.

**Soluciones a Medida**
Una de las fortalezas de PESCAIRA radica en su capacidad para ofrecer fabricación personalizada. La empresa proporciona soluciones específicas adaptadas a los requisitos de cada cliente, incluyendo balancines, ganchos, horquillas de elevación, pinzas especiales, implementos para carretillas, entre otros equipos especializados para la industria.

**Seguridad y Cumplimiento**
PESCAIRA pone un énfasis particular en la seguridad de sus soluciones. Ofrecen un completo servicio tanto de revisión como de homologación de útiles que garantiza el mantenimiento y óptimo funcionamiento de sus elementos de elevación de cargas, cumpliendo con la normativa vigente y asegurando la máxima seguridad para los usuarios.

**Compromiso con el Futuro**
El lanzamiento de su nuevo catálogo en 2024 demuestra el compromiso de PESCAIRA con el futuro, presentando ideas innovadoras y expresando su compromiso hacia la excelencia y el desarrollo continuo.

**Conclusión**
PESCAIRA se destaca como una empresa líder en la provisión de soluciones industriales especializadas, enfocadas en la calidad, seguridad y personalización. Su trayectoria de más de tres décadas en el mercado refleja su compromiso con la satisfacció...","['#1f1c18', '#fafaf9', '#be9a3e', '#635840', '#9a9897']",https://business-finder-assets-2024.s3.amazonaws.com/logos/logo-pescaira-definitivo2.png,https://business-finder-assets-2024.s3.amazonaws.com/screenshots/www.pescaira.com_.png
Laboratorio Poutás,"Calle, Rúa Policarpo Sanz, 27, 1º, 36202 Vigo, Pontevedra, Spain",Spain,986 22 15 15,,https://maps.google.com/?cid=4043784060684251346,,,,
EDIPREM - Ediciones y Producciones Empresariales S.A.,"Rúa do Areal, 8, Santiago de Vigo, 36201 Vigo, Pontevedra, Spain",Spain,986 49 32 78,http://www.ediprem.es/,https://maps.google.com/?cid=18325279258062992587,"Ediprem se presenta como una empresa líder en el mercado de regalos promocionales y publicitarios personalizados, con una trayectoria de más de 30 años. Su oferta de servicios abarca desde la atención personalizada hasta el diseño gratuito, destacándose por poseer uno de los catálogos más completos de productos promocionales en España. Ediprem se compromete a ayudar a las marcas a destacar y conectar con su público de manera única, ofreciendo una amplia variedad de regalos personalizados que van desde artículos de oficina y de hogar hasta tecnología y complementos de moda, todos fabricados con los mejores materiales y personalizables con la máxima calidad.

La empresa atiende a una diversa gama de clientes, desde pequeñas empresas locales hasta grandes corporaciones nacionales, y su equipo de expertos en marketing y diseño está dedicado a ayudar a las empresas a crear campañas de regalos promocionales efectivas y ajustadas a sus presupuestos. Ediprem pone un énfasis particular en la calidad y el diseño atractivo de sus productos, asegurando que estos sean herramientas eficaces para mejorar la visibilidad de la marca y fidelizar a los clientes.

En resumen, Ediprem se establece firmemente en el sector con una sólida oferta de valor basada en la experiencia, la calidad de sus productos personalizados y la atención al detalle, todo dirigido a potenciar la presencia de marca y establecer relaciones duraderas con clientes y socios comerciales.","['#e1e0df', '#403e3e', '#fbfbfb', '#c0b282', '#0d0d0d']",,https://business-finder-assets-2024.s3.amazonaws.com/screenshots/www.ediprem.es_.png
Pepa Medina,"Avda. del Aeropuerto, nº 90, Lavadores, 36206 Vigo, Pontevedra, Spain",Spain,986 23 88 88,https://pepamedina.es/,https://maps.google.com/?cid=16155583093413872202,"Pepa Medina es una empresa ubicada en Vigo dedicada a la oferta de regalos personalizados para empresas. Se especializan en una variedad de productos que incluyen ropa laboral, merchandising, equipamiento deportivo, y cestas de regalo. La compañía utiliza plataformas como WordPress y WooCommerce para gestionar su presencia online y su tienda, lo que subraya su enfoque moderno y digitalizado hacia el negocio de regalos corporativos. A través de su sitio web, ofrecen un catálogo detallado de productos y servicios, enfatizando la personalización como un valor central de su oferta. Es una empresa que busca satisfacer las necesidades de regalos y promocionales de las corporaciones, proporcionando soluciones creativas y personalizadas para una amplia gama de requisitos empresariales.","['#ca2d3b', '#fdfdfd', '#131314', '#5c5d5f', '#ad9d9a']",https://business-finder-assets-2024.s3.amazonaws.com/logos/logo-exclusivas-medina.png,https://business-finder-assets-2024.s3.amazonaws.com/screenshots/pepamedina.es_.png
Iberconsa Seafood Processing (ISP-Bouzas),"Muelle Reparaciones de, 36208 Vigo, Pontevedra, Spain",Spain,986 67 62 03,http://www.iberconsa.es/,https://maps.google.com/?cid=13717485269718264326,"Iberconsa se posiciona como una empresa líder a nivel mundial en la captura y producción de langostino austral y merluza congelada. La empresa se destaca por ofrecer productos del mar de máxima calidad, garantizando la frescura en cada etapa de su proceso de producción. Su enfoque en la calidad y la garantía de frescura de sus productos convierte a Iberconsa en un referente en el sector de distribución de productos congelados del mar.","['#928f89', '#1f3142', '#ccc8bb', '#f8f7f2', '#5c6266']",https://business-finder-assets-2024.s3.amazonaws.com/logos/iberconsa-2024-09-03.svg#852,https://business-finder-assets-2024.s3.amazonaws.com/screenshots/www.iberconsa.es_.png
S.A.U. DE PESCADOS Y MARISCOS PEIXEMAR,"Puerto pesquero del Berbés, dársena 4 S/N, 36202 Vigo, Pontevedra, Spain",Spain,986 82 84 00,http://masdelmar.es/,https://maps.google.com/?cid=7286330047965112591,"El archivo proporcionado no contiene información directamente relacionada con el resumen de una empresa. En su lugar, se muestra una página web indicando que el ""Servicio desactivado"", señalando que el dominio se encuentra temporalmente inactivo y sugiere contactar con el proveedor para más información. 

Sin datos específicos sobre la empresa en cuestión, no es posible generar un resumen profesional y conciso. Si tienes más información o documentos que describan directamente la empresa, por favor, súbelos para que pueda asistirte adecuadamente.","['#c8ac7f', '#fefefe', '#7b6236', '#d7c29c', '#ab8f62']",,https://business-finder-assets-2024.s3.amazonaws.com/screenshots/masdelmar.es_.png
CNVigo - Centro de negocios de Vigo,"Praza de Compostela, 23, 36201 Vigo, Pontevedra, Spain",Spain,986 44 32 72,https://centrodenegociosvigo.es/,https://maps.google.com/?cid=12821813635953701661,"El Centro de Negocios de Vigo, con más de 25 años de experiencia, ofrece servicios profesionales de alta calidad para apoyar a profesionales y empresas en su crecimiento y gestión diaria. Proporciona una infraestructura completa en una ubicación privilegiada en la Alameda de Vigo, permitiendo a los clientes pagar solo cuando necesitan utilizar los servicios. Sus servicios incluyen: 

- **Oficinas flexibles:** Se pueden alquilar por horas, días o meses, con precios desde 6€/hora, asegurando una solución ajustada a necesidades específicas.
  
- **Domiciliación de empresas y autónomos (Oficina virtual):** Ofrece una dirección de prestigio para la papelería y documentación empresarial, manejo de correspondencia, asistencia secretarial y gestión de agendas, con tarifas desde 1€/día.

Este centro se posiciona como una opción ideal para aquellas empresas y profesionales que buscan soluciones eficaces y adaptadas a sus necesidades, destacándose por su compromiso con la calidad y el apoyo al crecimiento empresarial.","['#7a827c', '#fdfcfc', '#4e574b', '#c6c1b8', '#252117']",https://business-finder-assets-2024.s3.amazonaws.com/logos/logo.jpg,https://business-finder-assets-2024.s3.amazonaws.com/screenshots/centrodenegociosvigo.es_.png
Vigaldis,"Calle, Rúa de Severino Cobas, 65, Lavadores, 36214 Vigo, Pontevedra, Spain",Spain,986 28 16 09,,https://maps.google.com/?cid=9685316694243140495,,,,
Marsan Transformaciones Superficiales,"Parque Tecnológico y Logístico de Vigo Calle B, Parcela 10.09, 36314 Vigo, Pontevedra, Spain",Spain,986 27 08 04,http://www.grupomarsan.com/,https://maps.google.com/?cid=4221336119139434361,"Grupo Marsan es una empresa destacada en el sector de revestimientos superficiales para automoción, concentrándose en la protección, funcionalidad y aspecto de sus productos. Fundada en 1951 como una pequeña empresa familiar especializada en la estampación de piezas metálicas, Marsan ha evolucionado hacia la excelencia operativa, con más de seis décadas de experiencia y conocimiento. Ofrece servicios integrales a sus clientes y accionistas generando valor significativo y estableciendo referencias globales en el sector del coating. Entre sus valores principales destacan la innovación, seguridad, sostenibilidad y compromiso, características que posicionan a Marsan como socio estratégico en revestimientos funcionales para protección.

La compañía proporciona una amplia gama de servicios, incluyendo transformación metálica, ensamblaje de componentes y logística de entregas, y se caracteriza por su apuesta continua por la innovación tecnológica, como se demuestra en proyectos como el MPCm (Marsan Process Control Management), una solución MES diseñada para optimizar el control del proceso productivo.

Con un compromiso firme con la expansión internacional y el desarrollo sostenible, Marsan ha sido pionera en la instalación de placas solares en su planta regional Sur Europa, y continúa con su expansión global, abriendo nuevas instalaciones en México.

En resumen, Grupo Marsan se destaca por su trayectoria excepcional en el sector de transformaciones superficiales, demostrando un fuerte compromiso con la calidad, innovación y sostenibilidad.","['#3b3c3e', '#fcfdfd', '#a5aaae', '#466989', '#121211']",https://business-finder-assets-2024.s3.amazonaws.com/logos/marsan_sticky_menu_logo.png,https://business-finder-assets-2024.s3.amazonaws.com/screenshots/www.grupomarsan.com_.png
Wanamos,"R. do Ecuador, 58, 6°, Santiago de Vigo, 36204 Vigo, Pontevedra, Spain",Spain,986 44 70 07,https://www.wanamos.com/,https://maps.google.com/?cid=14132112771116229361,"Wanamos es una empresa altamente especializada en la comercialización de regalos de empresa y artículos promocionales personalizados. Cuenta con un amplio catálogo de más de 35.000 referencias disponibles para cubrir las necesidades de publicidad y promoción de cualquier tipo de cliente, desde libretas, agendas con logotipo, porta bolígrafos hasta relojes y memorias USB, todos personalizables con el logotipo o mensaje de marca. Se destacan por ofrecer productos enfocados en proteger la salud, higiene y bienestar de los clientes y empleados, evidenciando una preocupación por el cuidado integral de sus stakeholders.

La empresa posee una sólida experiencia en técnicas de impresión y personalización de artículos promocionales, incluyendo la serigrafía, sublimación, grabado láser, y tampografía, lo que les permite imprimir o grabar logotipos y mensajes de manera eficaz sobre una gran variedad de superficies y materiales. Wanamos va más allá de ser solo un proveedor de regalos promocionales; es un verdadero socio estratégico que ofrece soluciones integrales de merchandising y promoción, capaces de adaptarse a las necesidades de marketing de cualquier empresa, sin importar su tamaño o sector. Su enfoque se centra en crear valor a través de la personalización, haciendo que las marcas destaquen en un entorno cada vez más competitivo. Además, ofrecen la posibilidad de solicitar presupuestos en línea, garantizando una respuesta rápida y efectiva a las necesidades de sus clientes.

La versatilidad de su oferta se refleja en la diversidad de sus productos, que incluyen desde artículos promocionales para eventos empresariales y ferias hasta regalos publicitarios orientados a la oficina que ayudan a mantener la imagen corporativa en cualquier contexto. Este enfoque holístico, que combina la calidad de sus productos con un servicio de atención al cliente excepcional, sitúa a Wanamos como un líder en el sector de regalos y artículos promocionales en España.","['#d8dbe3', '#64a894', '#fcfcfc', '#52586a', '#abb9b3']",https://business-finder-assets-2024.s3.amazonaws.com/logos/logo-wanamos.png,https://business-finder-assets-2024.s3.amazonaws.com/screenshots/www.wanamos.com_.png
Dinak,"Camiño Laranxo, 19, Teis, 36216 Vigo, Pontevedra, Spain",Spain,986 45 25 26,http://www.dinak.com/,https://maps.google.com/?cid=9477014778121916603,"DINAK es una empresa destacada con más de cuarenta años de experiencia, dedicada al diseño y fabricación de soluciones para la ventilación y evacuación de gases. Se posiciona como líder en brindar soluciones adaptadas a las necesidades de viviendas, sectores terciarios e industriales, respaldando sus productos con altas certificaciones de calidad y prestaciones para garantizar durabilidad y eficacia. El equipo técnico y de expertos de DINAK ofrece análisis y desarrollo integral de proyectos, facilitando cálculos y mediciones para ajustarlos a la realidad de las obras, junto con un servicio de apoyo integral. Entre su gama de productos y servicios, se destacan soluciones orientadas a la biomasa, evidenciando así su compromiso con la innovación y el cuidado del medio ambiente.

DINAK destaca también por el lanzamiento de software especializado, como VentBOM y DINAKALC, dirigido al diseño y la cotización de proyectos de conductos y soluciones específicas como conductos para cocinas industriales. A través de estos desarrollos, DINAK demuestra su capacidad de innovación y su orientación hacia la eficiencia y la mejora constante en el ámbito de la ventilación y evacuación de humos.

Adicionalmente, DINAK se involucra activamente en proyectos destacados a nivel internacional, ofreciendo soluciones como chimeneas autoportantes de doble pared aislada, sistemas de ventilación, y chimeneas exteriores resistentes, adaptadas a las necesidades técnicas y circunstancias de ejecución requeridas por cada proyecto. Su presencia global se evidencia en la realización de 18.000 estudios y proyectos al año y la disponibilidad de sus productos en más de 40 países, asegurando una producción continua durante 360 días al año .","['#323333', '#fcfcfc', '#b4b8b5', '#636764', '#1a1817']",,https://business-finder-assets-2024.s3.amazonaws.com/screenshots/www.dinak.com_.png
Serink Vigo,"Baixada Castelo, 70, Sótano -2, 36214 Vigo, Pontevedra, Spain",Spain,986 06 95 99,http://www.serink.es/,https://maps.google.com/?cid=291846078892136427,"Serink es una empresa situada en Galicia especializada en la personalización de productos a través de diversas técnicas como serigrafía, sublimación, bordado personalizado y DTF (Direct Transfer Film). Ofrecen un servicio integral que va desde la personalización de camisetas, sudaderas y regalos publicitarios hasta la realización de bordados a mano y serigrafía, abarcando una amplia variedad de opciones para negocios, eventos especiales y detalles únicos. 

Con más de 15 años de experiencia en serigrafía y un equipo capacitado en técnicas avanzadas, Serink se dedica a convertir ideas en realidades materiales, garantizando calidad y diseños creativos. Entre su oferta destacan la personalización de ropa deportiva, sudaderas, camisetas, tote bags y una variedad de regalos publicitarios personalizados. 

Serink se posiciona como un socio estratégico para aquellos que buscan productos personalizados de alta calidad, ofreciendo soluciones a medida para clubs deportivos, empresas, eventos y más. Además, se enfatiza su disposición para trabajar estrechamente con los clientes, ayudándolos a contar sus historias a través de productos únicos y creativos. La empresa goza de excelentes reseñas, destacando su profesionalismo, calidad de los productos y atención al cliente.","['#2e292b', '#fcfafb', '#060505', '#c33870', '#aa8e9b']",https://business-finder-assets-2024.s3.amazonaws.com/logos/logo-serink-450x100-1.png,https://business-finder-assets-2024.s3.amazonaws.com/screenshots/www.serink.es_.png
MAPEXEL S.L.,"R. de Luis Taboada, 18, 36201 Vigo, Pontevedra, Spain",Spain,986 22 55 81,https://www.mapexel.com/,https://maps.google.com/?cid=3712139270569696837,"La empresa Mapexel S.L., especialista en pesca de congelado a bordo desde 1993, destaca por su compromiso con la calidad y diversidad de productos del mar. Su principal actividad reside en la comercialización de una amplia gama de productos marinos, ya sean congelados a bordo, de factoría o elaborados, garantizando el acceso directo a cuotas significativas de pescado en diferentes caladeros. Esto les permite ofrecer un vasto surtido de peces de la más alta calidad a precios muy competitivos.

Con más de 25 años de experiencia en el sector pesquero a nivel nacional e internacional, Mapexel S.L. es un referente en el manejo integral de la pesca de congelado a bordo. La empresa cuenta con modernas instalaciones frigoríficas que cumplen con los estándares más altos de la industria, asegurando la óptima conservación de sus productos.

Su equipo especializado aporta un valor añadido a través de un asesoramiento personalizado, asegurando que cada cliente reciba la mejor opción según sus necesidades. Además, su capacidad para adaptarse a los cambios del mercado y optimizar los stocks demuestra una agilidad y compromiso con la satisfacción del cliente y la calidad del producto final.

En resumen, Mapexel S.L. se distingue por su solvencia, experiencia, y compromiso con la calidad, factores que han contribuido a su sólida posición en el mercado de productos marinos congelados.","['#a7b1c7', '#0a0c14', '#506c92', '#f1f2f6', '#222b54']",https://business-finder-assets-2024.s3.amazonaws.com/logos/Logo-UE.png,https://business-finder-assets-2024.s3.amazonaws.com/screenshots/www.mapexel.com_.png
Confederación Provincial de Empresarios de Pontevedra (CEP),"Rúa de García Barbón, 104, Teis, 36201 Vigo, Pontevedra, Spain",Spain,986 43 96 11,http://www.cep.es/,https://maps.google.com/?cid=6130050882095499396,"La Confederación Empresarial de Pontevedra (CEP) se destaca por su compromiso con la sostenibilidad, la igualdad, la digitalización del sector logístico y la formación laboral. Sus iniciativas incluyen el III Foro Empresa Sostenible, enfocándose en gestión de residuos, economía circular y energías renovables; el Observatorio de Igualdad, para monitorear la evolución de la igualdad de oportunidades; y Digital CoLogistics, un proyecto de cooperación transfronteriza para avanzar en la digitalización del transporte luso-galaico. Además, la CEP se involucra activamente en formación, orientación y empleo, ofreciendo programas formativos, asesoramiento en la búsqueda de trabajo, y una bolsa laboral, reforzando su papel tanto en el ámbito empresarial como en la comunidad.

Además, la CEP, bajo la dirección de su presidente y Consejo Asesor, promueve encuentros empresariales clave, como ""Conectando el Noroeste"", resaltando su papel en la integración regional y la cooperación internacional. También demostró liderazgo al organizar un evento histórico en Vigo para apoyar la alta velocidad Vigo-Oporto y el Corredor Noroeste, contando con el respaldo de instituciones públicas y privadas.

Este conjunto de actividades y compromisos de la CEP refleja su rol dinámico y multifacético en promover el desarrollo empresarial, la sostenibilidad, y la igualdad en la región de Pontevedra y más allá.","['#be964b', '#f8f8f7', '#0c0d04', '#544f27', '#224385']",https://business-finder-assets-2024.s3.amazonaws.com/logos/logo-cep-vec-1.svg,https://business-finder-assets-2024.s3.amazonaws.com/screenshots/www.cep.es_.png
Hnos. Fernández Ibáñez Consign. Pesca S.L.,"S N, Lugar Puerto Pesquero, 0, 36201 Vigo, Pontevedra, Spain",Spain,986 82 86 00,http://www.hficp.com/,https://maps.google.com/?cid=17406975830342144982,"Hermanos Fernández Ibáñez Consignatarios de Pesca S.L. es una empresa con una sólida trayectoria familiar en el sector pesquero que se remonta a principios de la década de 1940, fundada por Claudio Ibáñez. Actualmente, en su cuarta generación, la empresa ha dejado una marca significativa en El Berbés, el barrio pesquero emblemático de Vigo, donde se halla una de las lonjas más importantes para la venta de pescado a nivel mundial. La compañía se especializa en la comercialización de pescado, sirviendo como un puente vital entre los mares y los mercados, y conecta a la flota palangrera gallega, española y extranjera con el Puerto de Vigo, de crucial importancia en la recepción y venta de pescado. Hermanos Fernández Ibáñez destaca por sus instalaciones de vanguardia, incluidas cámaras de ultracongelación de -25º para 3.000 Tn y -50º para 1.000 Tn, y plantas de elaboración de pescado congelado que abarcan más de 2.000 m^2. Además, realizan la primera venta de pescado de sus armadores, tanto fresco como congelado, subrayando su rol esencial en la cadena de suministro del sector pesquero.","['#223446', '#fcfdfd', '#b3bec3', '#6a818b', '#3f5760']",https://business-finder-assets-2024.s3.amazonaws.com/logos/Recurso-1@4x.png,https://business-finder-assets-2024.s3.amazonaws.com/screenshots/www.hficp.com_.png
"CASA PEPE VIGO, S.L.","s/n, Peirao Trasatlánticos, 36202 Vigo, Pontevedra, Spain",Spain,986 44 31 23,http://www.casapepevigo.com/,https://maps.google.com/?cid=405577280358748075,"Casa Pepe Vigo, S.L. es una empresa notable en el suministro de una amplia gama de productos y servicios. Está dedicada a proveer productos de alimentación de diversos tipos, incluyendo alimentos secos, congelados, frescos, bebidas, productos de limpieza, y equipamiento naval. Esta compañía provee a buques, colectividades como colegios y residencias, y hospitales, destacando por su compromiso con la calidad, el servicio, y la experiencia en el sector. Entre sus valores más importantes se encuentran la calidad y el servicio, mostrando así un fuerte compromiso con sus clientes.

A nivel operativo y estratégico, Casa Pepe destaca por varios puntos clave:
- **Globales:** Poseen capacidades para suministrar sus productos a nivel mundial, lo que les permite alcanzar un amplio mercado.
- **Disponibilidad:** Están disponibles las 24 horas del día, los 7 días de la semana, asegurando una respuesta pronta y eficiente.
- **Especialización:** Son expertos en el aprovisionamiento, lo que garantiza una logística y entrega rápidas.
- **Responsabilidad ambiental:** Se comprometen con el respeto total al medio ambiente, lo cual está respaldado por certificaciones específicas.

Casa Pepe Vigo también se distingue por su Responsabilidad Social Empresarial (RSE), adoptando prácticas, estrategias, y sistemas de gestión que mejoran el impacto social, económico, y ambiental de su actividad empresarial. Esta responsabilidad se traduce en un valor añadido para su gestión, enfocada no solo en el cumplimiento de las leyes y normativas vigentes, sino también en la adopción de nuevos lineamientos organizacionales que promueven el bienestar comunitario y la sostenibilidad.

La oferta de servicios de Casa Pepe Vigo se extiende más allá del suministro a buques, incluyendo el aprovisionamiento de alimentos para hospitales, colectividades y servicios de cátering. Esto subraya la diversidad y adaptabilidad de su modelo de negocio para satisfacer las necesidades de una variedad de clientes exigente...","['#fefefe', '#8b8888', '#252429', '#c9cdd1', '#5f5d5c']",https://business-finder-assets-2024.s3.amazonaws.com/logos/casa-pepe-logo-57.png,https://business-finder-assets-2024.s3.amazonaws.com/screenshots/www.casapepevigo.com_.png
"OTEBRA, S.L.","Severino Cobas, 63, Naves 3 y 4, Lavadores, 36214 Vigo, Pontevedra, Spain",Spain,607 87 11 24,,https://maps.google.com/?cid=5048065209426981614,,,,
Cossat,"Av. de Castelao, 39, Coia, 36209 Vigo, Pontevedra, Spain",Spain,986 20 77 88,http://www.cossat.com/,https://maps.google.com/?cid=8863142318352706177,"Cossat es una empresa que ofrece un servicio integral que va dirigido a comunidades, empresas, y particulares. Su conjunto de servicios abarca desde el mantenimiento de comunidades, la instalación y el mantenimiento de antenas TDT, SAT y cable, hasta sistemas de porteros y videoporteros, soluciones de videovigilancia y seguridad, sistemas de control de acceso y presencia, implementaciones de domótica, servicios de electricidad e iluminación, equipamiento de sonido, servicios para el sector naval e informática. La empresa se destaca por su enfoque integral, asegurando una amplia gama de soluciones técnicas y tecnológicas diseñadas para satisfacer las necesidades de mantenimiento y mejora de infraestructuras y servicios.","['#301916', '#505250', '#0e0909', '#73706d', '#423330']",https://business-finder-assets-2024.s3.amazonaws.com/logos/logo-cossat_dark.png,https://business-finder-assets-2024.s3.amazonaws.com/screenshots/www.cossat.com_.png
Medidas Admissíveis,"Rúa Tercio de Afora, 13, Bajo, Santiago de Vigo, 36204 Vigo, Pontevedra, Spain",Spain,644 70 16 39,https://medidasadmissiveis.es/,https://maps.google.com/?cid=881286625035593115,"Medidas Admissíveis es una empresa dedicada a ofrecer soluciones integrales en el ámbito de la cerrajería, las reformas y la construcción, centrando sus operaciones principalmente en la provincia de Pontevedra y en el norte de Portugal. Su amplia gama de servicios incluye desde reparaciones urgentes y mantenimiento hasta proyectos de reformas integrales y construcción de viviendas, adaptando cada trabajo a las necesidades específicas de sus clientes. La empresa se destaca por su compromiso con la calidad, empleando materiales de primera y técnicas avanzadas para superar las expectativas de sus clientes. Además, brinda asesoramiento personalizado para guiar a los propietarios en cada paso del proyecto.

Entre los servicios más notables se encuentran la cerrajería urgente, instalación y sustitución de cerraduras, trabajos de pintura interior y exterior, soluciones de desokupación en Vigo y alrededores, reformas parciales e integrales de viviendas y locales comerciales, construcción low cost de viviendas llave en mano, e instalación de pladur y suelos de hormigón con técnicas como el hormigón impreso y pulido. Medidas Admissíveis también se ha especializado en la perforación de pozos, ofreciendo soluciones para el aprovechamiento de aguas subterráneas.

La empresa se posiciona como un aliado confiable siempre disponible, destacando la urgencia como uno de sus valores principales, garantizando disponibilidad los 365 días del año para atender cualquier emergencia y requerimiento de los clientes.

Para más detalles sobre sus proyectos y servicios, o para solicitar asesoramiento profesional y presupuestos personalizados, Medidas Admissíveis invita a los interesados a contactarles directamente a través de su sitio web o medios de contacto proporcionados.","['#f2f2f2', '#5e5953', '#c4c1bc', '#2d2824', '#9d9386']",,https://business-finder-assets-2024.s3.amazonaws.com/screenshots/medidasadmissiveis.es_.png
Cardama Shipyard,"Av. da Beiramar, 12, 36208 Vigo, Pontevedra, Spain",Spain,986 23 16 62,https://www.astilleroscardama.com/,https://maps.google.com/?cid=12056923479243930455,"Cardama Shipyard es una empresa destacada en el mercado de la construcción naval, con operaciones centradas en la construcción, reparación y transformación de buques desde 1916. Su sitio web resalta la larga trayectoria e historia de la compañía, subrayando su experiencia centenaria y su papel relevante dentro de la industria naval. La compañía maneja una amplia superficie de 14,670 metros cuadrados para sus operaciones y ha reparado más de 36 barcos entre 2017 y 2018, evidenciando su capacidad y expertise en el campo. Además, con más de 61 años de experiencia, Cardama Shipyard se consolida como un referente en el sector gracias a su compromiso con la calidad y la innovación en todos sus proyectos. Su enfoque no solo se limita a la excelencia técnica en la construcción y reparación de buques sino también en cumplir con altos estándares de protección de datos y privacidad para sus clientes y empleados, como se refleja en su política detallada sobre manejo y protección de datos.","['#fdfdfd', '#1b263f', '#898d99', '#04102c', '#5b5762']",https://business-finder-assets-2024.s3.amazonaws.com/logos/cardama-shipyard-logo-negativo.png,https://business-finder-assets-2024.s3.amazonaws.com/screenshots/www.astilleroscardama.com_.png
Imperma Vigo,"Rúa Cantabria, 42, Lavadores, 36205 Vigo, Pontevedra, Spain",Spain,609 58 51 32,https://www.impermavigo.es/,https://maps.google.com/?cid=1347112993257415885,"Imperma Vigo se especializa en la rehabilitación, aislamientos, e impermeabilizaciones, ofreciendo una gama completa de servicios para edificios, hogares y espacios exteriores. Su compromiso con la calidad y la satisfacción del cliente es la base fundamental de todos sus proyectos en Vigo. Con experiencia en desde trabajos de pintura exterior hasta reformas complejas, Imperma Vigo garantiza soluciones duraderas y de alta calidad, asegurando la tranquilidad de sus clientes mediante servicios impecables y la prevención de problemas futuros.

La empresa es conocida por su especialización en trabajos verticales y en altura en Vigo, proporcionando soluciones rápidas y efectivas para áreas inaccesibles. Además, se enfocan en el aislamiento y la impermeabilización, servicios esenciales para garantizar la comodidad y seguridad, protegiendo contra las inclemencias del tiempo y promoviendo el ahorro energético.

Imperma Vigo brinda atención personalizada, ofreciendo soluciones adaptadas a las necesidades específicas de cada cliente, lo cual subraya su enfoque hacia la confiabilidad y la satisfacción del cliente.","['#95999f', '#f7f7f7', '#5d5853', '#3e6794', '#28221f']",,https://business-finder-assets-2024.s3.amazonaws.com/screenshots/www.impermavigo.es_.png
Abrasivos Vigo S L,"Baixada a Capitán, 43A, Lavadores, 36214 Vigo, Pontevedra, Spain",Spain,659 98 50 13,,https://maps.google.com/?cid=16715525612577262655,,,,
Grupo SERINHOSTEL,"Calle Burgos 12, bajo, A 200 metros de la Escuela Oficial de Idiomas, Lavadores, 36205 Vigo, Pontevedra, Spain",Spain,886 12 58 87,http://www.serinhostel.com/,https://maps.google.com/?cid=13006880390499058302,"Serinhostel es una pequeña empresa dedicada a ofrecer un servicio integral en el sector hostelero. Se especializa en proporcionar equipamiento y soluciones para la hostelería y la industria, enfocándose en establecimientos como bares y restaurantes. Entre su gama de servicios y productos, Serinhostel incluye equipamiento industrial, limpieza, menaje, y vajilla, destacando su compromiso con la calidad y la satisfacción del cliente en el ámbito de Vigo.","['#4c6ac5', '#f5f5f5', '#3757ad', '#0411a5', '#bfc4d7']",,https://business-finder-assets-2024.s3.amazonaws.com/screenshots/www.serinhostel.com_.png
ARDÁN Información Empresarial,"Rúa do Areal, 46, Santiago de Vigo, 36201 Vigo, Pontevedra, Spain",Spain,986 26 97 15,http://www.ardan.es/,https://maps.google.com/?cid=9911333710985568753,"El archivo proporciona una visión detallada sobre el Consorcio de la Zona Franca de Vigo (CZFV), enfocándose en su proyecto ARDÁN. El proyecto ARDÁN está orientado al análisis y la difusión de información económica y comercial relevante sobre empresas españolas, destacando en particular a aquellas en la región de Galicia. A través de diversas secciones, se ofrece un resumen ejecutivo de la plataforma y sus principales características:

1. **ARDÁN Información Empresarial**: Esta sección resalta la vasta base de datos gestionada por el CZFV que incluye información sobre 200.000 empresas españolas. Este recurso es esencial para la consulta y el análisis de datos económicos y comerciales que pueden servir tanto para estudios de mercado, como para análisis competitivos y financieros.

2. **Indicadores ARDÁN**: Esta parte del archivo ilumina el enfoque del proyecto en la excelencia empresarial a través de la medición y el seguimiento de diversos indicadores económicos y de desempeño. Estos indicadores proporcionan una imagen clara del estado y la evolución de las empresas gallegas, ayudando a identificar aquellas que sobresalen en diferentes aspectos del negocio.

3. **Ranking ARDÁN Empresas Inteligentes**: Se presenta un ranking exclusivo que destaca a las empresas gallegas capaces de generar valor de manera sostenible e inclusiva. Este reconocimiento no solo sirve como una herramienta de evaluación sino también como un medio para promover y reconocer las prácticas empresariales excelentes en la región.

4. **Análisis por Sectores y Publicaciones Especiales**: El archivo menciona el análisis detallado de varios sectores económicos claves para la región de Galicia. También se hace referencia a las publicaciones especiales de ARDÁN que profundizan en temas específicos, proporcionando información valiosa y actualizada para los empresarios y analistas.

5. **Acceso y Utilidad del Proyecto**: La facilidad de acceso a la base de datos de ARDÁN online se remarca como uno de ...","['#f6f7fb', '#413938', '#cdd0d7', '#a74045', '#a68b8a']",,https://business-finder-assets-2024.s3.amazonaws.com/screenshots/www.ardan.es_.png
